{"type": "FeatureCollection", "features": [ {"type": "Feature", "properties": {"norad_id": 66829, "name": "STARLINK-36084", "group": "last-30-days", "lat": -23.205235726032402, "lon": 150.96665697247397, "alt_km": 413.45782850653995, "timestamp": "2025-12-26T18:39:30.997821+00:00", "meta": {"OBJECT_NAME": "STARLINK-36084", "OBJECT_ID": "2025-280J", "EPOCH": "2025-12-26T14:07:34.003200", "MEAN_MOTION": 15.52503738, "ECCENTRICITY": 0.0002915, "INCLINATION": 70.0005, "RA_OF_ASC_NODE": 160.4669, "ARG_OF_PERICENTER": 269.4363, "MEAN_ANOMALY": 90.649, "EPHEMERIS_TYPE": 0, "CLASSIFICATION_TYPE": "U", "NORAD_CAT_ID": 66829, "ELEMENT_SET_NO": 999, "REV_AT_EPOCH": 508, "BSTAR": 0.0012728633, "MEAN_MOTION_DOT": 0.00078875, "MEAN_MOTION_DDOT": 0}, "tle": {"line1": "1 66829U 25280J   25360.58858800  .00078875  00000+0  12729-2 0  9993", "line2": "2 66829  70.0005 160.4669 0002915 269.4363  90.6490 15.52503738  5087"}}, "geometry": {"type": "Point", "coordinates": [150.96665697247397, -23.205235726032402]}}, {"type": "Feature", "properties": {"norad_id": 66830, "name": "STARLINK-35881", "group": "last-30-days", "lat": -19.564059597351797, "lon": 152.50815026529378, "alt_km": 412.76656605420703, "timestamp": "2025-12-26T18:39:30.997833+00:00", "meta": {"OBJECT_NAME": "STARLINK-35881", "OBJECT_ID": "2025-280K", "EPOCH": "2025-12-26T14:06:34.068384", "MEAN_MOTION": 15.52559981, "ECCENTRICITY": 0.00033983, "INCLINATION": 70.0006, "RA_OF_ASC_NODE": 160.4641, "ARG_OF_PERICENTER": 274.8272, "MEAN_ANOMALY": 85.2527, "EPHEMERIS_TYPE": 0, "CLASSIFICATION_TYPE": "U", "NORAD_CAT_ID": 66830, "ELEMENT_SET_NO": 999, "REV_AT_EPOCH": 508, "BSTAR": 0.0018172106, "MEAN_MOTION_DOT": 0.00113405, "MEAN_MOTION_DDOT": 0}, "tle": {"line1": "1 66830U 25280K   25360.58789431  .00113405  00000+0  18172-2 0  9995", "line2": "2 66830  70.0006 160.4641 0003398 274.8272  85.2527 15.52559981  5087"}}, "geometry": {"type": "Point", "coordinates": [152.50815026529378, -19.564059597351797]}}, {"type": "Feature", "properties": {"norad_id": 66831, "name": "STARLINK-35788", "group": "last-30-days", "lat": -17.786375399689614, "lon": 153.23406306810807, "alt_km": 412.9493345880919, "timestamp": "2025-12-26T18:39:30.997843+00:00", "meta": {"OBJECT_NAME": "STARLINK-35788", "OBJECT_ID": "2025-280L", "EPOCH": "2025-12-26T14:06:04.315680", "MEAN_MOTION": 15.52546708, "ECCENTRICITY": 0.00033464, "INCLINATION": 70.0003, "RA_OF_ASC_NODE": 160.464, "ARG_OF_PERICENTER": 271.012, "MEAN_ANOMALY": 89.0683, "EPHEMERIS_TYPE": 0, "CLASSIFICATION_TYPE": "U", "NORAD_CAT_ID": 66831, "ELEMENT_SET_NO": 999, "REV_AT_EPOCH": 508, "BSTAR": 0.00069581336, "MEAN_MOTION_DOT": 0.00042914, "MEAN_MOTION_DDOT": 0}, "tle": {"line1": "1 66831U 25280L   25360.58754995  .00042914  00000+0  69581-3 0  9990", "line2": "2 66831  70.0003 160.4640 0003346 271.0120  89.0683 15.52546708  5086"}}, "geometry": {"type": "Point", "coordinates": [153.23406306810807, -17.786375399689614]}}, {"type": "Feature", "properties": {"norad_id": 66832, "name": "STARLINK-35768", "group": "last-30-days", "lat": -15.994158711158269, "lon": 153.94875562350023, "alt_km": 412.6425137766546, "timestamp": "2025-12-26T18:39:30.997856+00:00", "meta": {"OBJECT_NAME": "STARLINK-35768", "OBJECT_ID": "2025-280M", "EPOCH": "2025-12-26T14:05:34.806624", "MEAN_MOTION": 15.52554303, "ECCENTRICITY": 0.00033084, "INCLINATION": 70.0006, "RA_OF_ASC_NODE": 160.4621, "ARG_OF_PERICENTER": 274.7821, "MEAN_ANOMALY": 85.2989, "EPHEMERIS_TYPE": 0, "CLASSIFICATION_TYPE": "U", "NORAD_CAT_ID": 66832, "ELEMENT_SET_NO": 999, "REV_AT_EPOCH": 508, "BSTAR": 0.0015252521, "MEAN_MOTION_DOT": 0.00094915, "MEAN_MOTION_DDOT": 0}, "tle": {"line1": "1 66832U 25280M   25360.58720841  .00094915  00000+0  15253-2 0  9998", "line2": "2 66832  70.0006 160.4621 0003308 274.7821  85.2989 15.52554303  5082"}}, "geometry": {"type": "Point", "coordinates": [153.94875562350023, -15.994158711158269]}}, {"type": "Feature", "properties": {"norad_id": 66833, "name": "STARLINK-35858", "group": "last-30-days", "lat": -14.229994823559737, "lon": 154.6390133016382, "alt_km": 412.787802550607, "timestamp": "2025-12-26T18:39:30.997866+00:00", "meta": {"OBJECT_NAME": "STARLINK-35858", "OBJECT_ID": "2025-280N", "EPOCH": "2025-12-26T08:00:01.000224", "MEAN_MOTION": 15.52414998, "ECCENTRICITY": 0.00033627, "INCLINATION": 70.0002, "RA_OF_ASC_NODE": 161.1546, "ARG_OF_PERICENTER": 269.1139, "MEAN_ANOMALY": 114.4876, "EPHEMERIS_TYPE": 0, "CLASSIFICATION_TYPE": "U", "NORAD_CAT_ID": 66833, "ELEMENT_SET_NO": 999, "REV_AT_EPOCH": 508, "BSTAR": 0.0029834745, "MEAN_MOTION_DOT": 0.00187064, "MEAN_MOTION_DDOT": 0}, "tle": {"line1": "1 66833U 25280N   25360.33334491  .00187064  00000+0  29835-2 0  9993", "line2": "2 66833  70.0002 161.1546 0003362 269.1139 114.4876 15.52414998  5088"}}, "geometry": {"type": "Point", "coordinates": [154.6390133016382, -14.229994823559737]}}, {"type": "Feature", "properties": {"norad_id": 66834, "name": "STARLINK-35840", "group": "last-30-days", "lat": -12.541261652904943, "lon": 155.28967561588127, "alt_km": 413.0156805903471, "timestamp": "2025-12-26T18:39:30.997876+00:00", "meta": {"OBJECT_NAME": "STARLINK-35840", "OBJECT_ID": "2025-280P", "EPOCH": "2025-12-26T14:04:36.486624", "MEAN_MOTION": 15.52456904, "ECCENTRICITY": 0.00034355, "INCLINATION": 70.0007, "RA_OF_ASC_NODE": 160.4595, "ARG_OF_PERICENTER": 269.6434, "MEAN_ANOMALY": 90.4359, "EPHEMERIS_TYPE": 0, "CLASSIFICATION_TYPE": "U", "NORAD_CAT_ID": 66834, "ELEMENT_SET_NO": 999, "REV_AT_EPOCH": 508, "BSTAR": -0.00021412151, "MEAN_MOTION_DOT": -0.00013289, "MEAN_MOTION_DDOT": 0}, "tle": {"line1": "1 66834U 25280P   25360.58653341 -.00013289  00000+0 -21412-3 0  9992", "line2": "2 66834  70.0007 160.4595 0003435 269.6434  90.4359 15.52456904  5086"}}, "geometry": {"type": "Point", "coordinates": [155.28967561588127, -12.541261652904943]}}, {"type": "Feature", "properties": {"norad_id": 66835, "name": "STARLINK-35890", "group": "last-30-days", "lat": -10.607124463671562, "lon": 156.02271084685594, "alt_km": 412.26866366791273, "timestamp": "2025-12-26T18:39:30.997905+00:00", "meta": {"OBJECT_NAME": "STARLINK-35890", "OBJECT_ID": "2025-280Q", "EPOCH": "2025-12-26T14:04:05.927808", "MEAN_MOTION": 15.5256076, "ECCENTRICITY": 0.00033377, "INCLINATION": 70.0006, "RA_OF_ASC_NODE": 160.4575, "ARG_OF_PERICENTER": 274.4763, "MEAN_ANOMALY": 85.6043, "EPHEMERIS_TYPE": 0, "CLASSIFICATION_TYPE": "U", "NORAD_CAT_ID": 66835, "ELEMENT_SET_NO": 999, "REV_AT_EPOCH": 508, "BSTAR": 0.0019157985, "MEAN_MOTION_DOT": 0.00119664, "MEAN_MOTION_DDOT": 0}, "tle": {"line1": "1 66835U 25280Q   25360.58617972  .00119664  00000+0  19158-2 0  9998", "line2": "2 66835  70.0006 160.4575 0003337 274.4763  85.6043 15.52560760  5086"}}, "geometry": {"type": "Point", "coordinates": [156.02271084685594, -10.607124463671562]}}, {"type": "Feature", "properties": {"norad_id": 66836, "name": "STARLINK-35838", "group": "last-30-days", "lat": -8.810921537791634, "lon": 156.69525283107066, "alt_km": 412.03313689715924, "timestamp": "2025-12-26T18:39:30.997916+00:00", "meta": {"OBJECT_NAME": "STARLINK-35838", "OBJECT_ID": "2025-280R", "EPOCH": "2025-12-26T14:03:36.273600", "MEAN_MOTION": 15.52559203, "ECCENTRICITY": 0.00036423, "INCLINATION": 70.0008, "RA_OF_ASC_NODE": 160.4562, "ARG_OF_PERICENTER": 276.3092, "MEAN_ANOMALY": 83.768, "EPHEMERIS_TYPE": 0, "CLASSIFICATION_TYPE": "U", "NORAD_CAT_ID": 66836, "ELEMENT_SET_NO": 999, "REV_AT_EPOCH": 508, "BSTAR": 0.0017926321, "MEAN_MOTION_DOT": 0.00111847, "MEAN_MOTION_DDOT": 0}, "tle": {"line1": "1 66836U 25280R   25360.58583650  .00111847  00000+0  17926-2 0  9990", "line2": "2 66836  70.0008 160.4562 0003642 276.3092  83.7680 15.52559203  5086"}}, "geometry": {"type": "Point", "coordinates": [156.69525283107066, -8.810921537791634]}}, {"type": "Feature", "properties": {"norad_id": 66837, "name": "STARLINK-35729", "group": "last-30-days", "lat": -6.558244984504207, "lon": 157.52869825066654, "alt_km": 410.2828497975179, "timestamp": "2025-12-26T18:39:30.997929+00:00", "meta": {"OBJECT_NAME": "STARLINK-35729", "OBJECT_ID": "2025-280S", "EPOCH": "2025-12-26T12:30:17.392032", "MEAN_MOTION": 15.52817833, "ECCENTRICITY": 0.0003286, "INCLINATION": 70.0008, "RA_OF_ASC_NODE": 160.6309, "ARG_OF_PERICENTER": 288.0169, "MEAN_ANOMALY": 72.066, "EPHEMERIS_TYPE": 0, "CLASSIFICATION_TYPE": "U", "NORAD_CAT_ID": 66837, "ELEMENT_SET_NO": 999, "REV_AT_EPOCH": 507, "BSTAR": 0.0063215841, "MEAN_MOTION_DOT": 0.0041412, "MEAN_MOTION_DDOT": 0}, "tle": {"line1": "1 66837U 25280S   25360.52103463  .00414120  00000+0  63216-2 0  9998", "line2": "2 66837  70.0008 160.6309 0003286 288.0169  72.0660 15.52817833  5071"}}, "geometry": {"type": "Point", "coordinates": [157.52869825066654, -6.558244984504207]}}, {"type": "Feature", "properties": {"norad_id": 66838, "name": "STARLINK-35886", "group": "last-30-days", "lat": -3.401927781480741, "lon": 158.68348619157294, "alt_km": 411.8332855543322, "timestamp": "2025-12-26T18:39:30.997940+00:00", "meta": {"OBJECT_NAME": "STARLINK-35886", "OBJECT_ID": "2025-280T", "EPOCH": "2025-12-26T14:02:07.108800", "MEAN_MOTION": 15.52558121, "ECCENTRICITY": 0.00036101, "INCLINATION": 70.0009, "RA_OF_ASC_NODE": 160.4515, "ARG_OF_PERICENTER": 272.9255, "MEAN_ANOMALY": 87.1518, "EPHEMERIS_TYPE": 0, "CLASSIFICATION_TYPE": "U", "NORAD_CAT_ID": 66838, "ELEMENT_SET_NO": 999, "REV_AT_EPOCH": 508, "BSTAR": 0.0011512964, "MEAN_MOTION_DOT": 0.00071403, "MEAN_MOTION_DDOT": 0}, "tle": {"line1": "1 66838U 25280T   25360.58480450  .00071403  00000+0  11513-2 0  9995", "line2": "2 66838  70.0009 160.4515 0003610 272.9255  87.1518 15.52558121  5081"}}, "geometry": {"type": "Point", "coordinates": [158.68348619157294, -3.401927781480741]}}]}